SHIYAN-1 (SY-1)         
1 28220U 04012A   26068.73650539  .00016393  00000+0  54854-3 0  9991
2 28220  97.8764 140.5238 0005873  23.6952 336.4557 15.31043463195862
STARLINK-35743          
1 66578U 25268X   26067.20859500  .00045468  00000+0  16535-2 0  9993
2 66578  42.9997 355.3917 0000624 335.4914  24.5908 15.27542303 17736
